HST                     
1 20580U 90037B   26165.14417512  .00006344  00000+0  19999-3 0  9995
2 20580  28.4715 101.3706 0001912 110.8714 249.2086 15.30716351788104
POLAR                   
1 23802U 96013A   26164.95607376  .00000147  00000+0  00000+0 0  9996
2 23802  79.8496 227.0900 6467297 209.1908  89.6364  1.29846123144810
SWAS                    
1 25560U 98071A   26165.16648642  .00003204  00000+0  20519-3 0  9998
2 25560  69.8960 235.3092 0008723 263.2545  96.7627 15.09611377496814
CXO                     
1 25867U 99040B   26166.73124906  .00000579  00000+0  00000+0 0  9992
2 25867  56.1776 116.6293 7842889 310.3072   0.0447  0.37804362 17312
XMM-NEWTON              
1 25989U 99066A   26165.35763487  .00000064  00000+0  00000+0 0  9994
2 25989  64.5048 283.0226 4675842  64.9764   0.1205  0.50124916 22995
TERRA                   
1 25994U 99068A   26165.14090566  .00000356  00000+0  81397-4 0  9997
2 25994  97.9457 214.8078 0001346 200.8430 218.4176 14.61100947409165
CLUSTER II-FM7 (SAMBA)  
1 26410U 00041A   26165.90943278  .00008926  00000+0  00000+0 0  9993
2 26410 149.9112  50.5199 9050263 267.6271 359.8755  0.44879327 20296
CLUSTER II-FM8 (TANGO)  
1 26464U 00045B   26163.93586103  .00006615  00000+0  00000+0 0  9990
2 26464 150.1475  51.1959 9055540 268.1324   3.0125  0.44415453 20295
ODIN                    
1 26702U 01007A   26165.10891374  .00169748  00000+0  11319-2 0  9999
2 26702  97.3841 205.8566 0006678 145.7671 214.4025 15.74845621388911
TIMED                   
1 26998U 01055B   26165.19816325  .00001090  00000+0  10257-3 0  9997
2 26998  74.0674 241.0367 0000947 341.5687  18.5463 14.95289522330371
CORIOLIS                
1 27640U 03001A   26164.95578757  .00000088  00000+0  61925-4 0  9997
2 27640  98.7125 171.8898 0013210 218.5679 141.4554 14.19943995213767
SORCE                   
1 27651U 03004A   26165.01808587  .00002811  00000+0  21181-3 0  9992
2 27651  39.9912 279.7591 0016874  25.2759 334.8857 15.03698606271420
MOST                    
1 27843U 03031D   26164.97303429  .00000061  00000+0  48237-4 0  9991
2 27843  98.7045 172.7439 0008695 260.9747  99.0446 14.21321896190251
SCISAT 1                
1 27858U 03036A   26165.18679911  .00000444  00000+0  61331-4 0  9993
2 27858  73.9285 177.3043 0008614 246.8450 113.1819 14.81444994231007
SWIFT                   
1 28485U 04047A   26164.81561905  .00048901  00000+0  41135-3 0  9994
2 28485  20.5521 210.9067 0001739 231.5121 128.5169 15.68026337186338
HINODE (SOLAR-B)        
1 29479U 06041A   26164.98317159  .00000644  00000+0  11908-3 0  9999
2 29479  98.0549 181.1829 0016117 300.8350  59.1269 14.68619215 54401
SHIJIAN-6 02A (SJ-6 02A)
1 29505U 06046A   26165.18914995  .00006787  00000+0  34770-3 0  9994
2 29505  97.6364 206.2332 0004253 133.1547 227.0042 15.16912162 71812
SHIJIAN-6 02B (SJ-6 02B)
1 29506U 06046B   26165.21391889  .00001423  00000+0  11488-3 0  9993
2 29506  97.7162 194.2909 0015224  68.9753 291.3098 15.01370657 70297
FGRST (GLAST)           
1 33053U 08029A   26164.56178241  .00003032  00000+0  10830-3 0  9998
2 33053  25.5812 229.6566 0007580 284.3081  75.6615 15.23932931995282
SDO                     
1 36395U 10005A   26164.30669706 -.00000088  00000+0  00000+0 0  9993
2 36395  34.6434  86.4016 0001673  51.3791 132.2019  1.00270114 60022
CRYOSAT 2               
1 36508U 10013A   26165.18685909  .00000169  00000+0  41256-4 0  9990
2 36508  92.0352 276.5723 0002179  88.2910 271.8547 14.51898169857640
X-SAT                   
1 37389U 11015C   26165.20669611  .00000026  00000+0  28604-4 0  9990
2 37389  98.3501 142.3717 0014163 357.3485   2.7618 14.25205234787254
GCOM-W1 (SHIZUKU)       
1 38337U 12025A   26164.80393182  .00000428  00000+0  10504-3 0  9993
2 38337  98.2022 105.4108 0001811  77.2775 336.4931 14.57121871748548
NUSTAR                  
1 38358U 12031A   26165.25002315  .00019776  00000+0  11650-2 0  9996
2 38358   6.0281  56.1541 0006491  61.7713 229.4129 15.08776356  1304
NEOSSAT                 
1 39089U 13009D   26165.07362071  .00000138  00000+0  62349-4 0  9997
2 39089  98.4175 345.1804 0009818 254.2281 105.7823 14.35825445696299
BRITE-AUSTRIA           
1 39091U 13009F   26165.07379632  .00000158  00000+0  68293-4 0  9997
2 39091  98.3993 344.5866 0009042 246.9900 113.0333 14.36540989696606
IRIS                    
1 39197U 13033A   26165.13453266  .00000982  00000+0  11862-3 0  9998
2 39197  97.9331   4.4212 0023768 332.1508  27.8433 14.85880005699925
HISAKI (SPRINT-A)       
1 39253U 13049A   26164.88813108  .00000139  00000+0  10130-3 0  9995
2 39253  29.7190 236.7863 0136882 350.1099   9.6792 13.55544473630971
CASSIOPE                
1 39265U 13055A   26165.20957764  .00048319 -44833-6  52910-3 0  9993
2 39265  80.9157  70.3372 0293791  72.4456 290.8642 15.24926882667218
STSAT-3                 
1 39422U 13066G   26165.18298355  .00002735  00000+0  20892-3 0  9997
2 39422  97.6213 135.1194 0011159  52.7664 307.4578 15.02741695683754
SWARM B                 
1 39451U 13067A   26165.18781450  .00003239  00000+0  11546-3 0  9999
2 39451  87.7433 343.2282 0003351  87.6641 272.4992 15.28534810682787
